#dP2023  6 30  0  0  0.00000000      96 __u+U IGS14 FIT  IAC
## 2268 432000.00000000   900.00000000 60125 0.0000000000000
+  118   C06C07C08C09C10C11C13C14C16C19C20C21C22C23C24C25C26
+        C27C28C29C30C32C33C34C35C36C37C38C39C40C41C42C43C44
+        C45C46E02E03E04E05E07E08E09E10E11E12E13E14E15E18E19
+        E21E24E25E26E27E30E31E33E34E36G01G02G03G04G05G06G07
+        G08G09G10G11G12G13G14G15G16G17G18G19G20G21G22G23G24
+        G25G26G27G28G29G30G31G32J02J03J04R01R02R03R04R05R07
+        R08R09R11R12R13R14R15R16R17R18R19R20R21R22R24R25  0
++         7  8 13  7  8  7  7  7  7  6  6  6  6  6  6  6  6
++         6  6  5  6  6  6  6  6  6  6  6  6  6  6  6  6  6
++         6  6  4  5  4  5  4  4  4  4  4  4  4  4  5  4  4
++         4  4  4  4  4  4  5  4  5  4  3  3  3  3  4  4  4
++         4  4  3  0  3  4  3  4  4  3  3  4  4  3  4  3  3
++         4  4  4  4  4  3  4  3  9 10  9  8  7  6  6  6  7
++         7  7  7  7  8  7  7  7  7  7  8  8  7  7  7  8  0
%c M  cc GPS ccc cccc cccc cccc cccc ccccc ccccc ccccc ccccc
%c cc cc ccc ccc cccc cccc cccc cccc ccccc ccccc ccccc ccccc
%f  1.2500000  1.025000000  0.00000000000  0.000000000000000
%f  0.0000000  0.000000000  0.00000000000  0.000000000000000
%i    0    0    0    0      0      0      0      0         0
%i    0    0    0    0      0      0      0      0         0
/* INFORMATION & ANALYSIS CENTER (IAC)            FINAL DATA
/* S/V CLOCKS ARE ALIGNED TO GNSS TIME                      
/* G:C1WC2W R:C1PC2P E:C1XC5X C:C2IC6I J:C1CC2S             
/* PCV:IGS20_2247 OL/AL:FES2004  NONE     YN ORB:CoN CLK:CoN
*  2023 06 30 13  0  0.00000000
PC06  -1986.552929  33395.418798  25856.410080   -168.701458
PC07 -12779.140703  27259.408235 -29537.468554   -251.042858
PC08 -14849.037361  38511.341232   8023.634496    443.693591
PC09   5240.135251  38029.354136  18485.225512    472.827095
PC10  -6235.935434  27572.580284 -31059.253181   -100.776612
PC11  -8108.210641  13603.969883 -22913.925498    701.416802
PC13  -9144.740513  38607.670004  13976.792000    306.460727
PC14 -18525.043155  14995.274062  14582.064819    490.143239
PC16  -2220.146986  32805.485208  26808.358466     23.996373
PC19   8970.727827 -16637.344107 -20497.094779   -931.406639
PC20  24063.398600 -11645.481608  -7930.599814    468.424131
PC21 -25855.228981   -849.429911 -10491.923034   -928.975602
PC22 -12116.315066 -12323.592569 -21920.337378   -417.412212
PC23   5312.132557  22499.796677 -15617.735330   -963.289164
PC24 -16679.676884  15099.576520  16491.470922    120.626628
PC25  -6804.744160  27051.873514   -264.692760    158.124369
PC26 -15875.657173  -3690.816926  22639.986760   -142.084151
PC27  22411.579346  10926.302198  12517.750928    162.740799
PC28  17291.731179  21633.015700  -3409.616818    121.105378
PC29  -1353.792812 -20117.707545  19282.572262    140.974781
PC30  15771.554733  -6256.443063  22146.161861     -1.713747
PC32  25796.000970    748.824456  10609.260894   -543.423622
PC33  -9009.059167  16733.158041  20445.534034   -904.244998
PC34 -14808.938302   7543.761362 -22431.068855    204.486869
PC35 -17765.598082 -21144.136668   3867.230344    597.863665
PC36   7910.396168 -26760.223011   -439.092088   -354.740931
PC37  15460.128520   5180.874441 -22628.532161   -788.856688
PC38 -18274.918642  37889.472713    -41.760197     88.523401
PC39  -6046.935628  28568.625234  30539.295115     -3.575411
PC40 -18885.198192  20932.212893 -31417.244783    -27.865991
PC41  11397.592079  12678.180574  22141.851106   -911.110242
PC42 -24776.214321  11043.328939   6663.235010   -629.582136
PC43    422.296229  19816.141090 -19665.002373     28.565817
PC44 -22871.365176 -10129.555018 -12360.493308    154.151134
PC45  -5559.870333 -22158.287139  16046.139696   -116.745004
PC46  16291.110204 -16496.887377 -15551.799190    -65.368086
PE02 -21405.913953  20388.950703  -1378.481047     47.048270
PE03 -16502.169499  10926.142206  22016.226934    -31.435260
PE04  -4616.944335 -18290.708423 -22801.158635   -156.260752
PE05 -28261.626054  -2958.636411   8306.309715     -4.768728
PE07  23184.087692  15147.400228  10441.632050    -56.501907
PE08   4252.782596  18110.627819  23023.946649   -107.086644
PE09 -23143.114732 -15115.163921 -10606.309916    -68.210935
PE10  -9245.289839 -27714.055947  -4793.660407   -545.036508
PE11 -14227.125945 -21568.659369 -14449.730926   2363.182408
PE12  -3159.944824 -29044.137978   4694.853202   -599.973067
PE13  13927.772763  22155.035777  13832.490683    -19.313486
PE14  22205.200666  10091.523501   -742.567714    268.832790
PE15   2975.864825  29011.880052  -5079.490439    -33.440989
PE18 -30337.304578  -4697.672866  -9535.587110    241.739456
PE19  18818.095027  -9139.410628 -20929.695588  -2182.354980
PE21  24108.496317  -7342.615288 -15521.481473   -537.992469
PE24 -12451.195728 -11364.832377  24320.096034   -183.574232
PE25 -24034.603352   7025.725816  15793.179619   -607.578740
PE26  16639.368585   1533.084080  24427.020260    149.257532
PE27  13046.916671  10710.590661 -24310.074185    -87.526063
PE30  -6104.047599  22408.741398 -18351.826548   -297.441413
PE31   5571.358316 -22266.773569  18699.694193      0.603048
PE33   9639.489088 -18682.682894  20829.265222   -442.524083
PE34  -9541.619963  18822.952740 -20765.443686    -53.573623
PE36 -16585.434370  -2409.643162 -24403.929863    -78.960989
PG01  13893.754651  -4127.734131  21897.855273    175.362715
PG02  15966.106789   1904.091902  21667.018697   -580.827568
PG03  22296.765981 -11640.681130   8202.527441   -251.271416
PG04  22181.341255  -2063.384646 -14537.881275     82.541283
PG05 -17770.462684  -2170.423629 -19836.040826   -133.089320
PG06  -5151.791003 -25979.284175  -1051.605161    581.802083
PG07   7598.047530 -19723.626191 -15315.990096    138.287460
PG08  25879.753839   5762.772317   3656.941629   -129.869292
PG09  14249.744998 -10171.014605 -20058.543273   -123.560981
PG10  -5255.797655  19585.356691  17159.857105    -43.277337
PG11      0.000000      0.000000      0.000000 999999.999999
PG12 -22914.970653   7674.591510  10651.270476   -394.960059
PG13 -22761.745343 -13739.272154  -2353.671203    540.934326
PG14   8642.182637 -20318.526488  14663.736218    107.327430
PG15 -26249.768980  -2630.326344   3638.672700     53.645224
PG16  15016.215618   7259.001640 -21070.269828   -486.034380
PG17  -2583.250478 -16615.100223  20963.968858    719.857355
PG18  -5901.332221  21878.545933 -13722.090031   -327.706688
PG19 -10854.446140 -17724.922756  16498.338977    337.549988
PG20 -11008.098664 -10890.206489 -21549.083003    425.213903
PG21  16563.516662   5892.466146  20683.765379    152.643966
PG22  13618.187454  17662.064950  14994.320411    505.803278
PG23 -15618.688187  20259.253835   6834.494287     38.311951
PG24 -16079.438562   -324.552472  20822.916374   -242.348320
PG25 -19819.993838  17461.145716   -237.800057    453.159905
PG26   5543.887888  15880.595304 -20605.423925    237.788646
PG27  22137.446356  13246.903935  -7415.034957      6.276569
PG28   5031.959524  26065.670774    890.076078     83.566189
PG29 -16408.477654   7246.484303 -19675.258617   -604.307891
PG30   1091.378337 -25330.983670  -7317.324610   -507.582715
PG31  10984.054630  21598.867545 -10535.825336   -219.177927
PG32   6245.962323  16853.875426  19800.801652   -511.395215
PJ02 -36019.502436  21880.485684   2028.211416     -0.941252
PJ03 -18515.925222  25160.996048 -23750.863109      7.931781
PJ04 -27850.644259  30596.624552  14768.601777     96.079765
PR01 -22799.529460  -3196.982167 -10998.077482     60.448369
PR02 -23939.213102   4771.243587   7338.426160    -22.642336
PR03 -10987.821268  10418.188889  20557.486678     80.653825
PR04   7563.851296   9936.501943  22273.510431    193.229406
PR05  22150.665909   4339.618804  11915.793472    115.012600
PR07  10288.955792 -10483.614897 -20826.331277     59.136080
PR08  -7822.616683  -9930.463710 -22090.573252    -71.470245
PR09  14787.674072 -13566.930658 -15672.359393    128.629042
PR11   1454.850231 -20191.165639  15521.787531    -92.508660
PR12 -10154.471913  -4353.475304  23020.811846     28.624637
PR13 -14703.226250  11820.895104  17160.630810    -36.609427
PR14 -10853.992814  23094.000993   -376.770626     24.872977
PR15   -767.631215  19531.847290 -16369.389085     88.197127
PR16   9874.407601   4554.434543 -23059.437713     16.173184
PR17    -90.138366  16183.095351 -19700.467622     -4.356293
PR18  10894.096093  22194.620315  -6365.818833     89.213728
PR19  15584.456624  18106.002010   8926.043670   -238.141969
PR20  11947.231167    419.511899  22539.458285    -95.691418
PR21   -856.045957 -17047.900714  18959.925230    -19.171069
PR22 -10539.735308 -22586.421319   5422.090700     87.333269
PR24 -12025.025469    872.759691 -22471.769868    -14.387812
PR25   1085.923182 -16277.508625  19617.392372     57.656061
EOF
